{
  "norad_id": 56146,
  "name": "STARLINK-5111",
  "history": [
    {
      "epoch": "2026-03-28T14:06:14.063328Z",
      "apogee_km": 487.2430752689879,
      "perigee_km": 483.8579045989518,
      "latitude_deg": 1.2103563515675775e-05,
      "longitude_deg": 2.4063530445289456,
      "height_km": 485.8718220550531,
      "semi_major_axis_km": 6863.687489933969,
      "eccentricity": 0.0002466,
      "inclination_deg": 43.0035,
      "raan_deg": 39.9709,
      "arg_perigee_deg": 251.2694,
      "mean_anomaly_deg": 108.789,
      "mean_motion_rev_day": 15.26745012
    },
    {
      "epoch": "2026-03-29T04:14:06.653760Z",
      "apogee_km": 486.531917313926,
      "perigee_km": 484.5249815365132,
      "latitude_deg": 4.878130537269489e-05,
      "longitude_deg": 146.5349144372734,
      "height_km": 485.5080977569852,
      "semi_major_axis_km": 6863.665449425219,
      "eccentricity": 0.0001462,
      "inclination_deg": 43.0029,
      "raan_deg": 36.6489,
      "arg_perigee_deg": 258.3549,
      "mean_anomaly_deg": 101.7139,
      "mean_motion_rev_day": 15.26752366
    },
    {
      "epoch": "2026-03-30T03:47:14.103168Z",
      "apogee_km": 486.3439936314435,
      "perigee_km": 484.80240432075334,
      "latitude_deg": 3.441516353402044e-05,
      "longitude_deg": 146.75251140499378,
      "height_km": 485.6302793164255,
      "semi_major_axis_km": 6863.710198976098,
      "eccentricity": 0.0001123,
      "inclination_deg": 43.0016,
      "raan_deg": 31.1148,
      "arg_perigee_deg": 248.6625,
      "mean_anomaly_deg": 111.4107,
      "mean_motion_rev_day": 15.26737435
    },
    {
      "epoch": "2026-03-30T05:21:26.633952Z",
      "apogee_km": 486.3937554772101,
      "perigee_km": 484.7593680038881,
      "latitude_deg": -2.4112638323719994e-05,
      "longitude_deg": 122.76675380356583,
      "height_km": 485.6358663819694,
      "semi_major_axis_km": 6863.713561740548,
      "eccentricity": 0.00011906,
      "inclination_deg": 43.0018,
      "raan_deg": 30.7458,
      "arg_perigee_deg": 249.7686,
      "mean_anomaly_deg": 110.3037,
      "mean_motion_rev_day": 15.26736313
    },
    {
      "epoch": "2026-03-30T13:12:29.154816Z",
      "apogee_km": 486.47850736379405,
      "perigee_km": 484.66786061725725,
      "latitude_deg": 4.814943431266418e-05,
      "longitude_deg": 2.835610830131155,
      "height_km": 485.75559739852446,
      "semi_major_axis_km": 6863.710183990525,
      "eccentricity": 0.0001319,
      "inclination_deg": 43.0062,
      "raan_deg": 28.8975,
      "arg_perigee_deg": 243.4128,
      "mean_anomaly_deg": 116.6589,
      "mean_motion_rev_day": 15.2673744
    }
  ]
}